SL-16 R/B               
1 28353U 04021B   25177.40247167  .00000281  00000+0  17090-3 0  9991
2 28353  71.0008  50.3129 0003300  57.9795 302.1647 14.14549716 86590
CZ-4B R/B               
1 28415U 04035C   25177.60465527  .00005002  00000+0  20379-3 0  9999
2 28415  97.3783 210.3761 0036742 151.5409 208.7845 15.24299859140841
CZ-2C R/B               
1 28480U 04046B   25176.76970338  .00000070  00000+0  41423-4 0  9994
2 28480  98.1938 102.8175 0139335 194.1671 165.5586 14.26837932 71862
ARIANE 5 R/B            
1 28499U 04049H   25177.43004608  .00000679  00000+0  82381-4 0  9993
2 28499  98.2349 331.8991 0086629 101.3012 259.7951 14.84538136107764
CZ-2D R/B               
1 28738U 05024B   25177.48528219  .00014601  00000+0  32100-3 0  9990
2 28738  97.3664 181.7054 0004577 225.7933 134.2939 15.44092128100070
ALOS (DAICHI)           
1 28931U 06002A   25177.30356464  .00000939  00000+0  16939-3 0  9995
2 28931  98.0848 130.3645 0002004  64.5467 295.5945 14.68755126 35835
H-2A R/B                
1 28932U 06002B   25177.09698142  .00004467  00000+0  26040-3 0  9998
2 28932  98.2139 298.7855 0058846  32.4943 327.9886 15.11102881 55627
RESURS-DK 1             
1 29228U 06021A   25177.28239010  .00001410  00000+0  90517-4 0  9990
2 29228  69.9310 179.3241 0004383 194.2824 165.8218 15.11020851 48779
GENESIS 1               
1 29252U 06029A   25175.93004859  .00686508  27425-3  56571-3 0  9998
2 29252  64.4910 306.6761 0025726 282.4754 193.0919 16.12908815 48789
CZ-4B R/B               
1 29507U 06046C   25177.39170676  .00003629  00000+0  20095-3 0  9998
2 29507  97.5944 217.9826 0037079  74.5732 285.9590 15.13890479 21235
CZ-2C R/B               
1 31114U 07010B   25177.27572576  .00000057  00000+0  45291-4 0  9997
2 31114  98.3808 298.6362 0058254 320.7489  38.9471 14.20131746943323
COSMO-SKYMED 1          
1 31598U 07023A   25177.51202245  .00000703  00000+0  71163-4 0  9992
2 31598  97.8872   1.9808 0001649 105.5286 254.6116 14.94163427976617
GENESIS 2               
1 31789U 07028A   25177.61006684  .00099900  00000+0  47670-3 0  9991
2 31789  64.4739 356.3509 0023309 300.7380  59.1478 15.81896007995600
COSMOS 2428             
1 31792U 07029A   25177.53195933  .00000359  00000+0  21885-3 0  9993
2 31792  70.9391  21.0560 0005480 258.3787 101.6719 14.12868333927916
SL-16 R/B               
1 31793U 07029B   25177.47478795 -.00000190  00000+0 -73466-4 0  9995
2 31793  70.9756 350.9438 0002052 278.5161 111.0162 14.14784004929139
KORONAS-FOTON           
1 33504U 09003A   25177.53853239  .00006623  00000+0  18208-3 0  9995
2 33504  82.4311 180.7118 0011611   5.5626 354.5745 15.36934284906324
CZ-2C R/B               
1 37731U 11030B   25177.31104596  .00000815  00000+0  11132-3 0  9991
2 37731  97.8153 135.5561 0055003 104.1574  57.8887 14.80232245752151
H-2A R/B                
1 38341U 12025E   25177.55435372  .00001653  00000+0  16173-3 0  9990
2 38341  98.4377 120.2379 0047762  70.1996 290.4362 14.93065585709975
SHIJIAN-16 (SJ-16)      
1 39358U 13057A   25177.58298973  .00001104  00000+0  11316-3 0  9997
2 39358  74.9724 309.5282 0016962  12.4756 347.6848 14.91391366633310
SL-4 R/B                
1 39679U 14021B   25177.27414040  .00004834  00000+0  13910-3 0  9991
2 39679  51.6087 140.5606 0111379 253.6900 105.1808 15.31834578616889
ALOS-2                  
1 39766U 14029A   25177.52562422  .00000758  00000+0  10834-3 0  9995
2 39766  97.9225 274.7937 0001652 101.2151 258.9246 14.79464694598991
YAOGAN-29               
1 41038U 15069A   25177.57163888  .00000302  00000+0  44242-4 0  9999
2 41038  98.0338 200.0349 0002965  95.7195 264.4356 14.82650971517922
ASTRO-H (HITOMI)        
1 41337U 16012A   25177.37904252  .00001559  00000+0  92656-4 0  9993
2 41337  30.9987 207.9725 0010079 278.3085  81.6410 15.08097930513481
HXMT (HUIYAN)           
1 42758U 17034A   25177.60743002  .00003272  00000+0  18772-3 0  9996
2 42758  43.0155 356.2914 0033622  57.8976 302.5127 15.13929344443680
CZ-2C R/B               
1 43521U 18054D   25177.53819607  .00022700  00000+0  34363-3 0  9996
2 43521  35.1372 225.5514 0032002 337.8686  22.0658 15.53091342388601
SAOCOM 1A               
1 43641U 18076A   25177.55797377  .00000261  00000+0  39392-4 0  9990
2 43641  97.8887   4.4026 0001403  88.6762 271.4611 14.82148433363426
H-2A R/B                
1 43682U 18084L   25177.44273063  .00010883  00000+0  36280-3 0  9996
2 43682  98.8765 337.5557 0032294 184.0180 176.0802 15.30828948366451
SAOCOM 1B               
1 46265U 20059A   25177.58923662  .00000240  00000+0  36660-4 0  9992
2 46265  97.8887   3.5364 0001528  93.5049 266.6339 14.82153328260818
CSS (TIANHE)            
1 48274U 21035A   25177.60902107  .00022682  00000+0  28275-3 0  9999
2 48274  41.4652 323.4600 0005016 197.3023 162.7645 15.59349464237625
COSMOS 2550             
1 48865U 21056A   25177.57762084  .00004562  00000+0  14452-3 0  9991
2 48865  67.1433  95.6948 0008384 269.8599  90.1594 15.33807012224184
CZ-2C R/B               
1 52794U 22058K   25177.00297817  .00009575  00000+0  23033-3 0  9999
2 52794  50.1911 182.7521 0055509 212.9121 146.8383 15.40385799170411
GSLV R/B                
1 54149U 22138AN  25176.48594773  .00001599  00000+0  14352-3 0  9998
2 54149  87.3790 252.4837 0022535  12.1352 348.0417 14.94875279145486
XRISM                   
1 57800U 23137A   25177.57706180  .00003328  00000+0  20417-3 0  9994
2 57800  31.0012 135.6500 0008023 345.4746  14.5660 15.08179634 99054
ACS3                    
1 59588U 24077B   25177.25553349  .00009724  00000+0  94362-2 0  9990
2 59588  97.4651 169.6648 0070260  74.9303 285.9614 13.78584310 58749
